0 COSMOS 2251 DEB
1 36533U 93036BCT 13281.22167017  .00000638  00000-0  20544-3 0  3384
2 36533 074.0151 114.6159 0056304 255.2299 225.6743 14.40474919204591
0 COSMOS 2251 DEB
1 36533U 93036BCT 13283.23485104  .00000731  00000-0  23414-3 0  3391
2 36533 074.0150 110.8882 0056271 251.0960 225.3810 14.40480044204883
0 COSMOS 2251 DEB
1 36533U 93036BCT 13285.51006861  .00000726  00000-0  23235-3 0  3400
2 36533 074.0150 106.6752 0056235 246.4179 143.9730 14.40484164205202
0 COSMOS 2251 DEB
1 36533U 93036BCT 13287.80718898  .00001092  00000-0  34526-3 0  3417
2 36533 074.0154 102.4214 0056195 241.7126 176.1625 14.40489175205543
0 COSMOS 2251 DEB
1 36533U 93036BCT 13290.18097516  .00001107  00000-0  34994-3 0  3426
2 36533 074.0159 098.0258 0056123 236.8462 245.9712 14.40495456205883
0 COSMOS 2251 DEB
1 36533U 93036BCT 13292.45511461  .00001325  00000-0  41711-3 0  3436
2 36533 074.0162 093.8148 0056068 232.1778 159.0969 14.40500479206214
0 COSMOS 2251 DEB
1 36533U 93036BCT 13295.11151740  .00001626  00000-0  50998-3 0  3444
2 36533 074.0163 088.8961 0056022 226.7578 254.5707 14.40507568206597
